CUBERRT                 
1 43546U 98067NU  20100.93259279  .00016370  00000-0  13217-3 0  9995
2 43546  51.6347 272.4149 0003509 184.3953 175.7014 15.71016405 99462
TEMPEST-D               
1 43547U 98067NV  20101.02492515  .00007328  00000-0  89175-4 0  9999
2 43547  51.6365 297.1306 0005287 154.0184 206.1076 15.61704204 98823
RAINCUBE                
1 43548U 98067NW  20101.08106498  .00030218  00000-0  24112-3 0  9991
2 43548  51.6334 280.1316 0004498 189.4580 170.6333 15.70859848 99500
HALOSAT                 
1 43549U 98067NX  20100.92845984  .00026060  00000-0  21304-3 0  9994
2 43549  51.6357 281.4225 0003904 190.0602 170.0318 15.70366356 99035
ENDUROSAT ONE           
1 43551U 98067NZ  20100.74357343  .00045450  00000-0  29341-3 0  9997
2 43551  51.6342 274.1057 0004533 208.1189 151.9566 15.75629643 99527
EQUISAT                 
1 43552U 98067PA  20100.79466024  .00028808  00000-0  22932-3 0  9997
2 43552  51.6357 280.5690 0005007 195.2401 164.8446 15.70941914 99408
AEROCUBE 12A            
1 43556U 18046C   20101.16745603  .00001149  00000-0  51909-4 0  9991
2 43556  51.6423  73.6180 0008787  52.8466 307.3315 15.29589511 96926
AEROCUBE 12B            
1 43557U 18046D   20100.62808549  .00001019  00000-0  47799-4 0  9999
2 43557  51.6421  76.7579 0008810  51.2246 308.9520 15.29332186 96780
UITMSAT-1               
1 43589U 98067PD  20100.79235091  .00036452  00000-0  26757-3 0  9998
2 43589  51.6325 279.6456 0004612 207.4225 152.6531 15.72746327 95154
MAYA-1                  
1 43590U 98067PE  20100.78532660  .00034143  00000-0  25101-3 0  9998
2 43590  51.6316 279.6072 0004707 209.6311 150.4421 15.72742435 95087
BHUTAN-1                
1 43591U 98067PF  20100.89027004  .00037873  00000-0  27651-3 0  9997
2 43591  51.6335 278.8641 0004756 209.0334 151.0400 15.72853547 95109
SIRIUSSAT-1             
1 43595U 98067PG  20101.35515518  .00028957  00000-0  23021-3 0  9995
2 43595  51.6325 280.4323 0002668 181.4755 178.6235 15.70978966 94301
SIRIUSSAT-2             
1 43596U 98067PH  20100.77614238  .00031209  00000-0  24922-3 0  9995
2 43596  51.6334 284.1345 0003105 173.1117 186.9924 15.70829615 94206
TANUSHA-3               
1 43597U 98067PJ  20100.93274393  .00060661  00000-0  35825-3 0  9996
2 43597  51.6310 274.4970 0002846 217.9309 142.1491 15.77536684 94344
SURFSAT                 
1 43614U 18070B   20100.80798565  .00002771  00000-0  72194-4 0  9999
2 43614  93.0223 126.2227 0012862 236.4874 123.5152 15.38860203 87925
CP7 (DAVE)              
1 43615U 18070C   20100.63821423  .00002488  00000-0  65112-4 0  9998
2 43615  93.0225 126.1467 0012998 236.8425 123.1583 15.38731136 87891
ELFIN-B                 
1 43616U 18070D   20101.32048277  .00003722  00000-0  93537-4 0  9998
2 43616  93.0186 126.3520 0013482 236.0965 123.9008 15.39935518 88038
ELFIN-A                 
1 43617U 18070E   20101.36131399  .00003787  00000-0  94726-4 0  9993
2 43617  93.0239 126.8241 0012918 231.7065 128.3029 15.40088224 88047
CUBEBEL-1 (BSUSAT-1)    
1 43666U 18083E   20101.55916925  .00000913  00000-0  48046-4 0  9990
2 43666  97.4956 128.6768 0013436 233.1712 278.0442 15.18127918 80313
DEBRISSAT-2             
1 43680U 98067PR  20100.90362381  .00147881  00000-0  53570-3 0  9998
2 43680  51.6315 267.5446 0005109 268.6887  91.3532 15.87602076103164
CICERO 10               
1 43690U 18088A   20100.77099071  .00000990  00000-0  43889-4 0  9994
2 43690  85.0349 123.5830 0014196 193.1833 166.9039 15.20125964 78323
IRVINE01                
1 43693U 18088D   20100.55627349  .00002255  00000-0  95040-4 0  9990
2 43693  85.0320 122.6168 0017946 176.6683 183.4682 15.22569235 78361
PROXIMA I               
1 43694U 18088E   20101.36740970  .00000900  00000-0  37593-4 0  9991
2 43694  85.0292 121.8919 0019672 166.9323 193.2433 15.21855099 78487
PROXIMA II              
1 43696U 18088G   20101.29998718  .00000908  00000-0  37964-4 0  9990
2 43696  85.0293 121.9394 0019706 167.0971 193.0780 15.21857785 78473
FACSAT-1                
1 43721U 18096C   20101.45914609  .00001310  00000-0  51980-4 0  9995
2 43721  97.4247 175.3944 0017711   8.6537 351.5004 15.27045597 76018
CENTAURI-2              
1 43722U 18096D   20101.44163808  .00001961  00000-0  75379-4 0  9992
2 43722  97.4257 175.5906 0017712   8.7538 351.4006 15.27510855 76018
INNOSAT-2               
1 43738U 18096V   20101.44991529  .00002956  00000-0  10365-3 0  9996
2 43738  97.4267 177.2910 0023735  15.1684 345.0263 15.29999917 76135
SIRION PATHFINDER-2     
1 43759U 18099B   20101.45436708 -.00000127  00000-0 -63067-5 0  9995
2 43759  97.7097 174.2588 0015415  54.2238 306.0413 14.95248117 73766
CORVUS-BC 4             
1 43767U 18099K   20101.16950542 -.00000006  00000-0  46614-5 0  9993
2 43767  97.7082 173.4633 0013102  59.4226 300.8285 14.94693330 73709
MOVE-II                 
1 43780U 18099Y   20101.13772964  .00000716  00000-0  69989-4 0  9991
2 43780  97.7103 173.8610 0014856  66.8569 293.4216 14.95330847 73709
SPACEBEE-7              
1 43816U 18099BL  20101.15756676  .00000740  00000-0  71680-4 0  9993
2 43816  97.7119 174.2298 0014601  52.5305 307.7242 14.95638318 73286
SPACEBEE-5              
1 43817U 18099BM  20100.73597238  .00001122  00000-0  10457-3 0  9993
2 43817  97.7159 174.1574 0014065  54.8504 305.4033 14.96168616 73235
SPACEBEE-6              
1 43818U 18099BN  20100.72788857  .00000465  00000-0  46779-4 0  9998
2 43818  97.7129 173.9142 0014316  53.4795 306.7742 14.95802819 73372
SHIELDS 1               
1 43850U 18104B   20100.59922928  .00000041  00000-0  00000-0 0  9998
2 43850  85.0305 220.8452 0013606 330.9113  29.1478 15.21325506 73003
STF-1                   
1 43852U 18104D   20100.60604882  .00000041  00000-0  00000-0 0  9998
2 43852  85.0367 221.3368 0013677 345.9896  14.1082 15.21144317 72987
ZACUBE-2                
1 43907U 18111AH  20101.38884188  .00000599  00000-0  27066-4 0  9995
2 43907  97.2714   3.1815 0022400  28.2442 332.0006 15.24516988 71644
LUME 1                  
1 43908U 18111AJ  20101.26614806  .00001198  00000-0  50678-4 0  9992
2 43908  97.2714   3.1899 0022226  28.4597 331.7850 15.24904172 71634
AOBA VELOX-IV           
1 43940U 19003J   20101.39813051  .00001888  00000-0  78324-4 0  9990
2 43940  97.2369 154.9919 0025953 103.6933 269.1123 15.24763048 68283
CATSAT-2                
1 44029U 98067PV  20101.14773398  .00015937  00000-0  17671-3 0  9995
2 44029  51.6380 301.7506 0004411 182.6666 177.4306 15.63125359 67833
DELPHINI                
1 44030U 98067PW  20101.01156709  .00021381  00000-0  22827-3 0  9993
2 44030  51.6346 301.5088 0004489 181.7912 178.3068 15.63862533 67791
UNITE                   
1 44031U 98067PX  20100.98896555  .00011322  00000-0  14301-3 0  9991
2 44031  51.6372 306.6563 0003491 170.5328 189.5732 15.60074735 67725
TECHEDSAT 8             
1 44032U 98067PY  20100.79563131  .00584073  16207-3  11014-2 0  9996
2 44032  51.6224 277.2948 0010095 280.8632  79.1241 16.00133574 68073
CATSAT-1                
1 44033U 98067PZ  20101.27545854  .00015605  00000-0  17309-3 0  9998
2 44033  51.6382 301.1087 0004231 180.5242 179.5749 15.63137128 67768
RAAVANA-1               
1 44329U 98067QE  20100.85050817  .00011474  00000-0  16481-3 0  9999
2 44329  51.6389 317.7735 0006780 109.1673 251.0053 15.56587596 46314
UGUISU                  
1 44330U 98067QF  20101.05234217  .00011497  00000-0  16552-3 0  9996
2 44330  51.6389 316.8679 0006761 108.9070 251.2655 15.56524713 46323
NEPALISAT-1             
1 44331U 98067QG  20100.84415454  .00011038  00000-0  15866-3 0  9995
2 44331  51.6389 317.7304 0006817 110.4510 249.7214 15.56615881 46306
SPOOQY-1                
1 44332U 98067QH  20101.22917795  .00008828  00000-0  12859-3 0  9996
2 44332  51.6390 315.7985 0005763 114.4301 245.7292 15.56558312 46322
SPACEBEE-9              
1 44370U 19037F   20101.36681116  .00006492  00000-0  15444-3 0  9996
2 44370  45.0155 136.1778 0011370 146.6319 213.5288 15.42451067 44085
SPACEBEE-8              
1 44371U 19037G   20101.08832613  .00012662  00000-0  26290-3 0  9993
2 44371  45.0203 134.1219 0009147 149.5635 210.5815 15.45720248 44075
IOD-1 GEMS              
1 44385U 98067QK  20101.04729451  .00017443  00000-0  23283-3 0  9990
2 44385  51.6402 316.1241 0002740  83.8531 276.2774 15.58174799 43810
MOVE-IIB                
1 44398U 19038N   20101.13448519  .00001288  00000-0  77894-4 0  9996
2 44398  97.5296  63.2720 0025618   6.8153 353.3421 15.12176492 42255
SONATE                  
1 44400U 19038Q   20100.88925928  .00000578  00000-0  37364-4 0  9994
2 44400  97.5326  63.0492 0025463   5.9279 354.2248 15.11889109 42212
LUCKY-7                 
1 44406U 19038W   20101.11513585  .00000781  00000-0  48804-4 0  9996
2 44406  97.5324  63.3530 0024894   5.1578 354.9904 15.12137524 42240
BEESAT 9                
1 44412U 19038AC  20100.85207765  .00001051  00000-0  64362-4 0  9991
2 44412  97.5316  63.0751 0023216  12.1336 348.0449 15.12187742 41904
JAISAT-1                
1 44419U 19038F   20101.42345841  .00001018  00000-0  61636-4 0  9994
2 44419  97.5318  63.8515 0021984   9.6805 350.4845 15.12671415 42319
SWIATOWID               
1 44426U 98067QL  20101.49169741  .00017457  00000-0  22860-3 0  9990
2 44426  51.6419 313.6702 0003410  88.1086 348.2505 15.58686135 43900
KRAKSAT                 
1 44427U 98067QM  20101.29822224  .00007117  00000-0  11109-3 0  9997
2 44427  51.6409 317.7925 0003831  70.8503 289.2903 15.55009717 43875
VCC A                   
1 44428U 98067QN  20100.81651761  .00011726  00000-0  17188-3 0  9995
2 44428  51.6406 319.0793 0003217  92.6928 267.4431 15.56021401 43815
ENTRYSAT                
1 44429U 98067QP  20101.01669259  .00013468  00000-0  19117-3 0  9999
2 44429  51.6391 317.4001 0002843  87.7527 272.3790 15.56751030 43852
